start=new Date('2023-06-10T00:00:00.000Z').valueOf();
sats=[{"LAUNCH_DATE":"2022-09-24","REV_AT_EPOCH":"4011","MEAN_MOTION":"15.08835017","OBJECT_TYPE":"PAYLOAD","GP_ID":"233580588","SITE":"AFETR","MEAN_MOTION_DDOT":"0.0000000000000","BSTAR":"-0.00000774970000","FILE":"3929125","ARG_OF_PERICENTER":"79.1657","TLE_LINE2":"2 53893  53.2155 151.2576 0001094  79.1657 280.9458 15.08835017 40117","EPHEMERIS_TYPE":"0","REF_FRAME":"TEME","COUNTRY_CODE":"US","INCLINATION":"53.2155","EPOCH":"2023-06-09T16:17:01.973184","TLE_LINE1":"1 53893U 22119H   23160.67849506 -.00000411  00000-0 -77497-5 0  9997","CLASSIFICATION_TYPE":"U","TIME_SYSTEM":"UTC","MEAN_ELEMENT_THEORY":"SGP4","MEAN_ANOMALY":"280.9458","RA_OF_ASC_NODE":"151.2576","NORAD_CAT_ID":"53893","MEAN_MOTION_DOT":"-0.00000411","ECCENTRICITY":"0.00010940","SEMIMAJOR_AXIS":"6917.896","PERIOD":"95.438","RCS_SIZE":"LARGE","CENTER_NAME":"EARTH","OBJECT_NAME":"STARLINK-5052","APOAPSIS":"540.517","OBJECT_ID":"2022-119H","DECAY_DATE":null,"PERIAPSIS":"539.004","ELEMENT_SET_NO":"999"},{"MEAN_MOTION_DDOT":"0.0000000000000","BSTAR":"0.00001249900000","FILE":"3929125","ARG_OF_PERICENTER":"80.4518","GP_ID":"233579338","SITE":"AFETR","OBJECT_TYPE":"PAYLOAD","LAUNCH_DATE":"2022-09-24","REV_AT_EPOCH":"4011","MEAN_MOTION":"15.08836390","RA_OF_ASC_NODE":"151.3011","EPOCH":"2023-06-09T16:27:38.790432","TLE_LINE1":"1 53894U 22119J   23160.68586563 -.00000089  00000-0  12499-4 0  9990","CLASSIFICATION_TYPE":"U","TIME_SYSTEM":"UTC","MEAN_ANOMALY":"279.6613","MEAN_ELEMENT_THEORY":"SGP4","INCLINATION":"53.2162","TLE_LINE2":"2 53894  53.2162 151.3011 0001225  80.4518 279.6613 15.08836390 40111","EPHEMERIS_TYPE":"0","REF_FRAME":"TEME","COUNTRY_CODE":"US","PERIOD":"95.438","RCS_SIZE":"LARGE","CENTER_NAME":"EARTH","SEMIMAJOR_AXIS":"6917.891","MEAN_MOTION_DOT":"-0.00000089","ECCENTRICITY":"0.00012250","NORAD_CAT_ID":"53894","OBJECT_ID":"2022-119J","DECAY_DATE":null,"PERIAPSIS":"538.909","ELEMENT_SET_NO":"999","APOAPSIS":"540.604","OBJECT_NAME":"STARLINK-5043"},{"TLE_LINE1":"1 53895U 22119K   23160.67480844 -.00000261  00000-0  16547-5 0  9996","EPOCH":"2023-06-09T16:11:43.449216","CLASSIFICATION_TYPE":"U","MEAN_ELEMENT_THEORY":"SGP4","MEAN_ANOMALY":"278.2289","TIME_SYSTEM":"UTC","RA_OF_ASC_NODE":"151.2346","EPHEMERIS_TYPE":"0","TLE_LINE2":"2 53895  53.2154 151.2346 0001094  81.8827 278.2289 15.08836016 40114","COUNTRY_CODE":"US","REF_FRAME":"TEME","INCLINATION":"53.2154","GP_ID":"233579588","SITE":"AFETR","FILE":"3929125","BSTAR":"0.00000165470000","MEAN_MOTION_DDOT":"0.0000000000000","ARG_OF_PERICENTER":"81.8827","LAUNCH_DATE":"2022-09-24","MEAN_MOTION":"15.08836016","REV_AT_EPOCH":"4011","OBJECT_TYPE":"PAYLOAD","DECAY_DATE":null,"OBJECT_ID":"2022-119K","ELEMENT_SET_NO":"999","PERIAPSIS":"539.001","OBJECT_NAME":"STARLINK-5032","APOAPSIS":"540.514","SEMIMAJOR_AXIS":"6917.893","PERIOD":"95.438","CENTER_NAME":"EARTH","RCS_SIZE":"LARGE","NORAD_CAT_ID":"53895","MEAN_MOTION_DOT":"-0.00000261","ECCENTRICITY":"0.00010940"},{"SEMIMAJOR_AXIS":"6917.891","PERIOD":"95.438","RCS_SIZE":"LARGE","CENTER_NAME":"EARTH","NORAD_CAT_ID":"53896","MEAN_MOTION_DOT":"-0.00000295","ECCENTRICITY":"0.00010190","OBJECT_ID":"2022-119L","DECAY_DATE":null,"ELEMENT_SET_NO":"999","PERIAPSIS":"539.051","OBJECT_NAME":"STARLINK-5037","APOAPSIS":"540.461","GP_ID":"233580840","SITE":"AFETR","MEAN_MOTION_DDOT":"0.0000000000000","BSTAR":"-0.00000048086000","FILE":"3929125","ARG_OF_PERICENTER":"81.8123","LAUNCH_DATE":"2022-09-24","REV_AT_EPOCH":"4011","MEAN_MOTION":"15.08836389","OBJECT_TYPE":"PAYLOAD","TLE_LINE1":"1 53896U 22119L   23160.66743979 -.00000295  00000-0 -48086-6 0  9999","EPOCH":"2023-06-09T16:01:06.797856","CLASSIFICATION_TYPE":"U","TIME_SYSTEM":"UTC","MEAN_ANOMALY":"278.2985","MEAN_ELEMENT_THEORY":"SGP4","RA_OF_ASC_NODE":"151.1881","TLE_LINE2":"2 53896  53.2154 151.1881 0001019  81.8123 278.2985 15.08836389 40110","EPHEMERIS_TYPE":"0","REF_FRAME":"TEME","COUNTRY_CODE":"US","INCLINATION":"53.2154"},{"APOAPSIS":"540.410","OBJECT_NAME":"STARLINK-5035","ELEMENT_SET_NO":"999","PERIAPSIS":"539.109","OBJECT_ID":"2022-119M","DECAY_DATE":null,"MEAN_MOTION_DOT":"0.00000063","ECCENTRICITY":"0.00009410","NORAD_CAT_ID":"53897","RCS_SIZE":"LARGE","CENTER_NAME":"EARTH","PERIOD":"95.438","SEMIMAJOR_AXIS":"6917.895","INCLINATION":"53.2155","REF_FRAME":"TEME","COUNTRY_CODE":"US","TLE_LINE2":"2 53897  53.2155 151.2804 0000941  92.8061 267.3039 15.08835380 40113","EPHEMERIS_TYPE":"0","RA_OF_ASC_NODE":"151.2804","TIME_SYSTEM":"UTC","MEAN_ANOMALY":"267.3039","MEAN_ELEMENT_THEORY":"SGP4","CLASSIFICATION_TYPE":"U","TLE_LINE1":"1 53897U 22119M   23160.68217954  .00000063  00000-0  22012-4 0  9991","EPOCH":"2023-06-09T16:22:20.312256","OBJECT_TYPE":"PAYLOAD","REV_AT_EPOCH":"4011","MEAN_MOTION":"15.08835380","LAUNCH_DATE":"2022-09-24","ARG_OF_PERICENTER":"92.8061","MEAN_MOTION_DDOT":"0.0000000000000","FILE":"3929125","BSTAR":"0.00002201200000","SITE":"AFETR","GP_ID":"233581089"},{"NORAD_CAT_ID":"53898","MEAN_MOTION_DOT":"-0.00000184","ECCENTRICITY":"0.00011310","SEMIMAJOR_AXIS":"6917.881","PERIOD":"95.438","RCS_SIZE":"LARGE","CENTER_NAME":"EARTH","OBJECT_NAME":"STARLINK-5044","APOAPSIS":"540.529","OBJECT_ID":"2022-119N","DECAY_DATE":null,"ELEMENT_SET_NO":"999","PERIAPSIS":"538.964","LAUNCH_DATE":"2022-09-24","REV_AT_EPOCH":"4007","MEAN_MOTION":"15.08839727","OBJECT_TYPE":"PAYLOAD","GP_ID":"233548061","SITE":"AFETR","MEAN_MOTION_DDOT":"0.0000000000000","BSTAR":"0.00000654140000","FILE":"3928876","ARG_OF_PERICENTER":"79.9750","TLE_LINE2":"2 53898  53.2152 152.3090 0001131  79.9750 280.1369 15.08839727 40076","EPHEMERIS_TYPE":"0","REF_FRAME":"TEME","COUNTRY_CODE":"US","INCLINATION":"53.2152","TLE_LINE1":"1 53898U 22119N   23160.39142055 -.00000184  00000-0  65414-5 0  9998","EPOCH":"2023-06-09T09:23:38.735520","CLASSIFICATION_TYPE":"U","TIME_SYSTEM":"UTC","MEAN_ELEMENT_THEORY":"SGP4","MEAN_ANOMALY":"280.1369","RA_OF_ASC_NODE":"152.3090"},{"DECAY_DATE":null,"OBJECT_ID":"2022-119P","ELEMENT_SET_NO":"999","PERIAPSIS":"538.975","APOAPSIS":"540.511","OBJECT_NAME":"STARLINK-5042","PERIOD":"95.438","RCS_SIZE":"LARGE","CENTER_NAME":"EARTH","SEMIMAJOR_AXIS":"6917.878","ECCENTRICITY":"0.00011100","MEAN_MOTION_DOT":"0.00000123","NORAD_CAT_ID":"53899","RA_OF_ASC_NODE":"152.9257","TLE_LINE1":"1 53899U 22119P   23160.26262664  .00000123  00000-0  25783-4 0  9990","EPOCH":"2023-06-09T06:18:10.941696","CLASSIFICATION_TYPE":"U","MEAN_ELEMENT_THEORY":"SGP4","MEAN_ANOMALY":"271.6189","TIME_SYSTEM":"UTC","INCLINATION":"53.2151","EPHEMERIS_TYPE":"0","TLE_LINE2":"2 53899  53.2151 152.9257 0001110  88.4930 271.6189 15.08840761 40052","COUNTRY_CODE":"US","REF_FRAME":"TEME","BSTAR":"0.00002578300000","FILE":"3928876","MEAN_MOTION_DDOT":"0.0000000000000","ARG_OF_PERICENTER":"88.4930","GP_ID":"233548310","SITE":"AFETR","OBJECT_TYPE":"PAYLOAD","LAUNCH_DATE":"2022-09-24","MEAN_MOTION":"15.08840761","REV_AT_EPOCH":"4005"},{"FILE":"3928923","BSTAR":"-0.00027386000000","MEAN_MOTION_DDOT":"0.0000000000000","ARG_OF_PERICENTER":"87.1881","GP_ID":"233551459","SITE":"AFETR","OBJECT_TYPE":"PAYLOAD","LAUNCH_DATE":"2022-09-24","MEAN_MOTION":"15.08854915","REV_AT_EPOCH":"3963","RA_OF_ASC_NODE":"152.8556","EPOCH":"2023-06-09T06:02:15.663552","TLE_LINE1":"1 53900U 22119Q   23160.25157018 -.00004646  00000-0 -27386-3 0  9994","CLASSIFICATION_TYPE":"U","MEAN_ELEMENT_THEORY":"SGP4","MEAN_ANOMALY":"272.9260","TIME_SYSTEM":"UTC","INCLINATION":"53.2147","EPHEMERIS_TYPE":"0","TLE_LINE2":"2 53900  53.2147 152.8556 0001297  87.1881 272.9260 15.08854915 39630","COUNTRY_CODE":"US","REF_FRAME":"TEME","PERIOD":"95.437","CENTER_NAME":"EARTH","RCS_SIZE":"LARGE","SEMIMAJOR_AXIS":"6917.835","MEAN_MOTION_DOT":"-0.00004646","ECCENTRICITY":"0.00012970","NORAD_CAT_ID":"53900","DECAY_DATE":null,"OBJECT_ID":"2022-119Q","PERIAPSIS":"538.803","ELEMENT_SET_NO":"999","APOAPSIS":"540.597","OBJECT_NAME":"STARLINK-5045"},{"RA_OF_ASC_NODE":"151.1637","TLE_LINE1":"1 53901U 22119R   23160.66375190  .00000452  00000-0  46484-4 0  9993","EPOCH":"2023-06-09T15:55:48.164160","CLASSIFICATION_TYPE":"U","TIME_SYSTEM":"UTC","MEAN_ELEMENT_THEORY":"SGP4","MEAN_ANOMALY":"275.6609","INCLINATION":"53.2161","TLE_LINE2":"2 53901  53.2161 151.1637 0000966  84.4493 275.6609 15.08839467 40117","EPHEMERIS_TYPE":"0","REF_FRAME":"TEME","COUNTRY_CODE":"US","MEAN_MOTION_DDOT":"0.0000000000000","FILE":"3929125","BSTAR":"0.00004648400000","ARG_OF_PERICENTER":"84.4493","GP_ID":"233580589","SITE":"AFETR","OBJECT_TYPE":"PAYLOAD","LAUNCH_DATE":"2022-09-24","REV_AT_EPOCH":"4011","MEAN_MOTION":"15.08839467","OBJECT_ID":"2022-119R","DECAY_DATE":null,"PERIAPSIS":"539.079","ELEMENT_SET_NO":"999","APOAPSIS":"540.415","OBJECT_NAME":"STARLINK-5024","PERIOD":"95.438","CENTER_NAME":"EARTH","RCS_SIZE":"LARGE","SEMIMAJOR_AXIS":"6917.882","ECCENTRICITY":"0.00009660","MEAN_MOTION_DOT":"0.00000452","NORAD_CAT_ID":"53901"},{"INCLINATION":"53.2181","TLE_LINE2":"2 53902  53.2181 102.9619 0001275  94.3542 265.7595 15.08849581 40755","EPHEMERIS_TYPE":"0","REF_FRAME":"TEME","COUNTRY_CODE":"US","RA_OF_ASC_NODE":"102.9619","TLE_LINE1":"1 53902U 22119S   23160.25250057  .00001502  00000-0  11240-3 0  9991","CLASSIFICATION_TYPE":"U","EPOCH":"2023-06-09T06:03:36.049248","TIME_SYSTEM":"UTC","MEAN_ELEMENT_THEORY":"SGP4","MEAN_ANOMALY":"265.7595","OBJECT_TYPE":"PAYLOAD","LAUNCH_DATE":"2022-09-24","REV_AT_EPOCH":"4075","MEAN_MOTION":"15.08849581","MEAN_MOTION_DDOT":"0.0000000000000","BSTAR":"0.00011240000000","FILE":"3928876","ARG_OF_PERICENTER":"94.3542","GP_ID":"233547566","SITE":"AFETR","APOAPSIS":"540.598","OBJECT_NAME":"STARLINK-5021","OBJECT_ID":"2022-119S","DECAY_DATE":null,"PERIAPSIS":"538.834","ELEMENT_SET_NO":"999","MEAN_MOTION_DOT":"0.00001502","ECCENTRICITY":"0.00012750","NORAD_CAT_ID":"53902","PERIOD":"95.437","CENTER_NAME":"EARTH","RCS_SIZE":"LARGE","SEMIMAJOR_AXIS":"6917.851"}];
